{"type": "FeatureCollection", "features": [ {"type": "Feature", "properties": {"norad_id": 31619, "name": "FENGYUN 1C DEB", "group": "fengyun-1c-debris", "lat": 66.37427644461484, "lon": 147.4532987788766, "alt_km": 627.6334265877449, "timestamp": "2025-12-03T13:52:09.845188+00:00", "meta": {"OBJECT_NAME": "FENGYUN 1C DEB", "OBJECT_ID": "1999-025BZZ", "EPOCH": "2025-12-01T19:29:38.323104", "MEAN_MOTION": 14.83972972, "ECCENTRICITY": 0.00979106, "INCLINATION": 99.0727, "RA_OF_ASC_NODE": 166.874, "ARG_OF_PERICENTER": 328.0711, "MEAN_ANOMALY": 31.4589, "EPHEMERIS_TYPE": 0, "CLASSIFICATION_TYPE": "U", "NORAD_CAT_ID": 31619, "ELEMENT_SET_NO": 999, "REV_AT_EPOCH": 63326, "BSTAR": 0.0049563387, "MEAN_MOTION_DOT": 0.00045087, "MEAN_MOTION_DDOT": 0}, "tle": {"line1": "1 31619U 99025BZZ 25335.81224911  .00045087  00000+0  49563-2 0  9993", "line2": "2 31619  99.0727 166.8740 0097910 328.0711  31.4589 14.83972972633268"}}, "geometry": {"type": "Point", "coordinates": [147.4532987788766, 66.37427644461484]}}, {"type": "Feature", "properties": {"norad_id": 31620, "name": "FENGYUN 1C DEB", "group": "fengyun-1c-debris", "lat": -0.48842609418321425, "lon": -118.71550537746424, "alt_km": 776.1573995453928, "timestamp": "2025-12-03T13:52:09.845199+00:00", "meta": {"OBJECT_NAME": "FENGYUN 1C DEB", "OBJECT_ID": "1999-025CAA", "EPOCH": "2025-11-29T12:06:32.784768", "MEAN_MOTION": 14.36942197, "ECCENTRICITY": 0.0021449, "INCLINATION": 98.8876, "RA_OF_ASC_NODE": 57.1565, "ARG_OF_PERICENTER": 84.3152, "MEAN_ANOMALY": 276.0479, "EPHEMERIS_TYPE": 0, "CLASSIFICATION_TYPE": "U", "NORAD_CAT_ID": 31620, "ELEMENT_SET_NO": 999, "REV_AT_EPOCH": 65654, "BSTAR": 0.0022206597, "MEAN_MOTION_DOT": 6.551e-05, "MEAN_MOTION_DDOT": 0}, "tle": {"line1": "1 31620U 99025CAA 25333.50454612  .00006551  00000+0  22207-2 0  9991", "line2": "2 31620  98.8876  57.1565 0021449  84.3152 276.0479 14.36942197656549"}}, "geometry": {"type": "Point", "coordinates": [-118.71550537746424, -0.48842609418321425]}}, {"type": "Feature", "properties": {"norad_id": 31622, "name": "FENGYUN 1C DEB", "group": "fengyun-1c-debris", "lat": 13.499600004389674, "lon": -105.7383247689776, "alt_km": 779.0634475299285, "timestamp": "2025-12-03T13:52:09.845212+00:00", "meta": {"OBJECT_NAME": "FENGYUN 1C DEB", "OBJECT_ID": "1999-025CAC", "EPOCH": "2025-12-03T05:04:08.263200", "MEAN_MOTION": 14.37001244, "ECCENTRICITY": 0.0015007, "INCLINATION": 98.8177, "RA_OF_ASC_NODE": 71.7505, "ARG_OF_PERICENTER": 13.3002, "MEAN_ANOMALY": 56.9899, "EPHEMERIS_TYPE": 0, "CLASSIFICATION_TYPE": "U", "NORAD_CAT_ID": 31622, "ELEMENT_SET_NO": 999, "REV_AT_EPOCH": 95635, "BSTAR": 0.0027162609, "MEAN_MOTION_DOT": 8.025e-05, "MEAN_MOTION_DDOT": 0}, "tle": {"line1": "1 31622U 99025CAC 25337.21120675  .00008025  00000+0  27163-2 0  9998", "line2": "2 31622  98.8177  71.7505 0015007  13.3002  56.9899 14.37001244956353"}}, "geometry": {"type": "Point", "coordinates": [-105.7383247689776, 13.499600004389674]}}, {"type": "Feature", "properties": {"norad_id": 31623, "name": "FENGYUN 1C DEB", "group": "fengyun-1c-debris", "lat": 78.20225407460306, "lon": 50.81135532554005, "alt_km": 889.8830975446135, "timestamp": "2025-12-03T13:52:09.845222+00:00", "meta": {"OBJECT_NAME": "FENGYUN 1C DEB", "OBJECT_ID": "1999-025CAD", "EPOCH": "2025-12-02T20:02:22.350624", "MEAN_MOTION": 13.82580933, "ECCENTRICITY": 0.01951152, "INCLINATION": 97.6304, "RA_OF_ASC_NODE": 190.283, "ARG_OF_PERICENTER": 33.7651, "MEAN_ANOMALY": 327.5758, "EPHEMERIS_TYPE": 0, "CLASSIFICATION_TYPE": "U", "NORAD_CAT_ID": 31623, "ELEMENT_SET_NO": 999, "REV_AT_EPOCH": 57783, "BSTAR": 0.00047153491, "MEAN_MOTION_DOT": 5.61e-06, "MEAN_MOTION_DDOT": 0}, "tle": {"line1": "1 31623U 99025CAD 25336.83498091  .00000561  00000+0  47153-3 0  9995", "line2": "2 31623  97.6304 190.2830 0195115  33.7651 327.5758 13.82580933577835"}}, "geometry": {"type": "Point", "coordinates": [50.81135532554005, 78.20225407460306]}}, {"type": "Feature", "properties": {"norad_id": 31625, "name": "FENGYUN 1C DEB", "group": "fengyun-1c-debris", "lat": -78.80473166654423, "lon": -168.46003194946132, "alt_km": 796.7655655863127, "timestamp": "2025-12-03T13:52:09.845232+00:00", "meta": {"OBJECT_NAME": "FENGYUN 1C DEB", "OBJECT_ID": "1999-025CAF", "EPOCH": "2025-12-03T04:33:02.581344", "MEAN_MOTION": 14.55373936, "ECCENTRICITY": 0.01498391, "INCLINATION": 98.807, "RA_OF_ASC_NODE": 62.6967, "ARG_OF_PERICENTER": 44.7366, "MEAN_ANOMALY": 346.273, "EPHEMERIS_TYPE": 0, "CLASSIFICATION_TYPE": "U", "NORAD_CAT_ID": 31625, "ELEMENT_SET_NO": 999, "REV_AT_EPOCH": 98254, "BSTAR": 0.00019931747, "MEAN_MOTION_DOT": 9.47e-06, "MEAN_MOTION_DDOT": 0}, "tle": {"line1": "1 31625U 99025CAF 25337.18961321  .00000947  00000+0  19932-3 0  9999", "line2": "2 31625  98.8070  62.6967 0149839  44.7366 346.2730 14.55373936982540"}}, "geometry": {"type": "Point", "coordinates": [-168.46003194946132, -78.80473166654423]}}, {"type": "Feature", "properties": {"norad_id": 31627, "name": "FENGYUN 1C DEB", "group": "fengyun-1c-debris", "lat": 69.59308370544913, "lon": 1.7581003425605712, "alt_km": 778.667215823004, "timestamp": "2025-12-03T13:52:09.845242+00:00", "meta": {"OBJECT_NAME": "FENGYUN 1C DEB", "OBJECT_ID": "1999-025CAH", "EPOCH": "2025-11-26T09:13:22.975680", "MEAN_MOTION": 14.35408996, "ECCENTRICITY": 0.00515931, "INCLINATION": 98.5313, "RA_OF_ASC_NODE": 18.4415, "ARG_OF_PERICENTER": 201.9005, "MEAN_ANOMALY": 157.9975, "EPHEMERIS_TYPE": 0, "CLASSIFICATION_TYPE": "U", "NORAD_CAT_ID": 31627, "ELEMENT_SET_NO": 999, "REV_AT_EPOCH": 64532, "BSTAR": 0.0013473839, "MEAN_MOTION_DOT": 3.885e-05, "MEAN_MOTION_DDOT": 0}, "tle": {"line1": "1 31627U 99025CAH 25330.38429370  .00003885  00000+0  13474-2 0  9997", "line2": "2 31627  98.5313  18.4415 0051593 201.9005 157.9975 14.35408996645325"}}, "geometry": {"type": "Point", "coordinates": [1.7581003425605712, 69.59308370544913]}}, {"type": "Feature", "properties": {"norad_id": 31628, "name": "FENGYUN 1C DEB", "group": "fengyun-1c-debris", "lat": -14.972626480719189, "lon": 6.246565032610218, "alt_km": 858.2428287930998, "timestamp": "2025-12-03T13:52:09.845253+00:00", "meta": {"OBJECT_NAME": "FENGYUN 1C DEB", "OBJECT_ID": "1999-025CAJ", "EPOCH": "2025-12-03T07:43:17.067648", "MEAN_MOTION": 13.86751331, "ECCENTRICITY": 0.01700075, "INCLINATION": 102.2701, "RA_OF_ASC_NODE": 189.2481, "ARG_OF_PERICENTER": 242.6512, "MEAN_ANOMALY": 115.724, "EPHEMERIS_TYPE": 0, "CLASSIFICATION_TYPE": "U", "NORAD_CAT_ID": 31628, "ELEMENT_SET_NO": 999, "REV_AT_EPOCH": 93169, "BSTAR": 0.0029964618, "MEAN_MOTION_DOT": 3.846e-05, "MEAN_MOTION_DDOT": 0}, "tle": {"line1": "1 31628U 99025CAJ 25337.32172532  .00003846  00000+0  29965-2 0  9993", "line2": "2 31628 102.2701 189.2481 0170007 242.6512 115.7240 13.86751331931691"}}, "geometry": {"type": "Point", "coordinates": [6.246565032610218, -14.972626480719189]}}, {"type": "Feature", "properties": {"norad_id": 31629, "name": "FENGYUN 1C DEB", "group": "fengyun-1c-debris", "lat": -68.14373215723586, "lon": 167.82080064874876, "alt_km": 921.3962132529623, "timestamp": "2025-12-03T13:52:09.845263+00:00", "meta": {"OBJECT_NAME": "FENGYUN 1C DEB", "OBJECT_ID": "1999-025CAK", "EPOCH": "2025-12-01T08:03:40.160736", "MEAN_MOTION": 14.14467327, "ECCENTRICITY": 0.01042289, "INCLINATION": 102.1346, "RA_OF_ASC_NODE": 17.2227, "ARG_OF_PERICENTER": 56.4579, "MEAN_ANOMALY": 304.6484, "EPHEMERIS_TYPE": 0, "CLASSIFICATION_TYPE": "U", "NORAD_CAT_ID": 31629, "ELEMENT_SET_NO": 999, "REV_AT_EPOCH": 94285, "BSTAR": 0.0028263297, "MEAN_MOTION_DOT": 5.641e-05, "MEAN_MOTION_DDOT": 0}, "tle": {"line1": "1 31629U 99025CAK 25335.33588149  .00005641  00000+0  28263-2 0  9993", "line2": "2 31629 102.1346  17.2227 0104228  56.4579 304.6484 14.14467327942850"}}, "geometry": {"type": "Point", "coordinates": [167.82080064874876, -68.14373215723586]}}, {"type": "Feature", "properties": {"norad_id": 31630, "name": "FENGYUN 1C DEB", "group": "fengyun-1c-debris", "lat": 81.56911833422684, "lon": 38.324346505959994, "alt_km": 491.07694278505005, "timestamp": "2025-12-03T13:52:09.845274+00:00", "meta": {"OBJECT_NAME": "FENGYUN 1C DEB", "OBJECT_ID": "1999-025CAL", "EPOCH": "2025-11-28T17:02:46.410432", "MEAN_MOTION": 15.05651013, "ECCENTRICITY": 0.0167781, "INCLINATION": 98.0901, "RA_OF_ASC_NODE": 139.5424, "ARG_OF_PERICENTER": 43.6541, "MEAN_ANOMALY": 317.7815, "EPHEMERIS_TYPE": 0, "CLASSIFICATION_TYPE": "U", "NORAD_CAT_ID": 31630, "ELEMENT_SET_NO": 999, "REV_AT_EPOCH": 98379, "BSTAR": 0.00077583997, "MEAN_MOTION_DOT": 0.00015356, "MEAN_MOTION_DDOT": 0}, "tle": {"line1": "1 31630U 99025CAL 25332.71025938  .00015356  00000+0  77584-3 0  9991", "line2": "2 31630  98.0901 139.5424 0167781  43.6541 317.7815 15.05651013983798"}}, "geometry": {"type": "Point", "coordinates": [38.324346505959994, 81.56911833422684]}}, {"type": "Feature", "properties": {"norad_id": 31631, "name": "FENGYUN 1C DEB", "group": "fengyun-1c-debris", "lat": 1.7127468050020387, "lon": 67.32904995719252, "alt_km": 711.9979447755131, "timestamp": "2025-12-03T13:52:09.845284+00:00", "meta": {"OBJECT_NAME": "FENGYUN 1C DEB", "OBJECT_ID": "1999-025CAM", "EPOCH": "2025-11-28T23:34:31.488960", "MEAN_MOTION": 14.69293826, "ECCENTRICITY": 0.00676029, "INCLINATION": 99.3421, "RA_OF_ASC_NODE": 241.7954, "ARG_OF_PERICENTER": 13.5824, "MEAN_ANOMALY": 346.7177, "EPHEMERIS_TYPE": 0, "CLASSIFICATION_TYPE": "U", "NORAD_CAT_ID": 31631, "ELEMENT_SET_NO": 999, "REV_AT_EPOCH": 63770, "BSTAR": 0.0080354526, "MEAN_MOTION_DOT": 0.00049381, "MEAN_MOTION_DDOT": 0}, "tle": {"line1": "1 31631U 99025CAM 25332.98230890  .00049381  00000+0  80355-2 0  9990", "line2": "2 31631  99.3421 241.7954 0067602  13.5824 346.7177 14.69293826637708"}}, "geometry": {"type": "Point", "coordinates": [67.32904995719252, 1.7127468050020387]}}]}